      2.10          N: GNSS NAV DATA                        RINEX VERSION / TYPE
fic2rin                                 05/17/2020 00:17:46 PGM / RUN BY / DATE
                                                            END OF HEADER
32 20  5 16  9 59 44.0 2.815076150000e-04 7.617018127348e-12 0.000000000000e+00
    6.000000000000e+00-2.356250000000e+01 4.619120976358e-09-1.085650850790e+00
   -1.115724444389e-06 3.968554898165e-03 1.062266528606e-05 5.153716949463e+03
    5.543840000000e+05 6.705522537231e-08-8.808291622073e-01 5.215406417847e-08
    9.567032313754e-01 1.711562500000e+02-2.447131101839e+00-7.947831059065e-09
    9.857553463812e-11 1.000000000000e+00 2.105000000000e+03 0.000000000000e+00
    2.400000000000e+00 0.000000000000e+00 4.656612873077e-10 6.000000000000e+00
    5.472000000000e+05 4.000000000000e+00
 1 20  5 16 10  0  0.0-3.806492313743e-04-6.366462912410e-12 0.000000000000e+00
    1.000000000000e+01 2.512500000000e+01 3.989094733236e-09 2.372263549567e+00
    1.253560185432e-06 9.849262190983e-03 6.379559636116e-06 5.153627252579e+03
    5.544000000000e+05-1.173466444016e-07-2.960928422371e+00-1.545995473862e-07
    9.803313830342e-01 2.665937500000e+02 7.757470529100e-01-7.861756045124e-09
    3.685867816904e-10 1.000000000000e+00 2.105000000000e+03 0.000000000000e+00
    2.400000000000e+00 0.000000000000e+00 5.122274160385e-09 1.000000000000e+01
    5.472000000000e+05 4.000000000000e+00
 2 20  5 16 10  0  0.0-4.567103460431e-04-6.139089236967e-12 0.000000000000e+00
    7.900000000000e+01 2.525000000000e+01 4.302679223860e-09 2.614930450486e+00
    1.333653926849e-06 1.970592478756e-02 5.431473255157e-06 5.153697002411e+03
    5.544000000000e+05 2.197921276093e-07-3.036958608305e+00-6.146728992462e-08
    9.593293404891e-01 2.685937500000e+02-1.629746451150e+00-7.739965257763e-09
    2.485817830005e-10 1.000000000000e+00 2.105000000000e+03 0.000000000000e+00
    2.400000000000e+00 0.000000000000e+00-1.769512891769e-08 7.900000000000e+01
    5.472000000000e+05 4.000000000000e+00
 6 20  5 16 10  0  0.0-2.724346704781e-04-6.821210263297e-12 0.000000000000e+00
    2.000000000000e+01 2.318750000000e+01 3.982308736286e-09 2.508647648250e+00
    1.335516571999e-06 1.932372921146e-03 5.925074219704e-06 5.153539903641e+03
    5.544000000000e+05-1.490116119385e-08-2.969166380326e+00 2.607703208923e-08
    9.798971245799e-01 2.748750000000e+02-1.058902831759e+00-7.864970464732e-09
    2.957266039144e-10 1.000000000000e+00 2.105000000000e+03 0.000000000000e+00
    2.400000000000e+00 0.000000000000e+00 4.190951585770e-09 2.000000000000e+01
    5.472000000000e+05 4.000000000000e+00
 5 20  5 16 10  0  0.0-1.276796683669e-05-6.821210263297e-13 0.000000000000e+00
    4.600000000000e+01-5.406250000000e+01 4.871631494435e-09-9.859651346854e-01
   -2.607703208923e-06 5.850586807355e-03 5.586072802544e-06 5.153656354904e+03
    5.544000000000e+05 6.891787052155e-08-1.952305571512e+00 7.636845111847e-08
    9.522378319336e-01 2.623750000000e+02 7.925330986761e-01-8.321418049035e-09
    1.821504444400e-11 1.000000000000e+00 2.105000000000e+03 0.000000000000e+00
    2.400000000000e+00 0.000000000000e+00-1.117587089539e-08 4.600000000000e+01
    5.472000000000e+05 4.000000000000e+00
 3 20  5 16 10  0  0.0-1.773904077709e-04-1.216449163621e-11 0.000000000000e+00
    1.050000000000e+02-5.365625000000e+01 4.588048253483e-09 1.335678040740e+00
   -2.965331077576e-06 2.804986899719e-03 5.343928933144e-06 5.153555046082e+03
    5.544000000000e+05 0.000000000000e+00-1.920560467167e+00 1.303851604462e-08
    9.653188562622e-01 2.764687500000e+02 6.998348132833e-01-8.203913154484e-09
   -9.643258823294e-12 1.000000000000e+00 2.105000000000e+03 0.000000000000e+00
    2.400000000000e+00 0.000000000000e+00 1.862645149231e-09 1.050000000000e+02
    5.472000000000e+05 4.000000000000e+00
17 20  5 16 10  0  0.0 2.655554562807e-04 6.139089236967e-12 0.000000000000e+00
    6.000000000000e+00 4.437500000000e+00 3.711940331500e-09-1.860778347653e+00
    2.998858690262e-07 1.320914970711e-02 8.817762136459e-06 5.153702680588e+03
    5.544000000000e+05 2.756714820862e-07 2.325319229622e+00 2.086162567139e-07
    9.839799490002e-01 2.230937500000e+02-1.642826919570e+00-7.581030066046e-09
   -1.650068731986e-10 1.000000000000e+00 2.105000000000e+03 0.000000000000e+00
    2.400000000000e+00 0.000000000000e+00-1.071020960808e-08 6.000000000000e+00
    5.472000000000e+05 4.000000000000e+00
16 20  5 16 10  0  0.0-1.588030718267e-04-4.547473508865e-12 0.000000000000e+00
    5.500000000000e+01-7.375000000000e+00 4.275892393796e-09-9.153660379725e-01
   -3.632158041000e-07 1.150952349417e-02 5.867332220078e-06 5.153758312225e+03
    5.544000000000e+05 2.570450305939e-07 1.309511032791e+00 1.024454832077e-07
    9.784925198782e-01 2.752812500000e+02 6.314513323340e-01-8.062121534008e-09
   -4.382325398586e-10 1.000000000000e+00 2.105000000000e+03 0.000000000000e+00
    2.400000000000e+00 0.000000000000e+00-1.071020960808e-08 5.500000000000e+01
    5.472000000000e+05 4.000000000000e+00
 9 20  5 16 10  0  0.0-2.182726748288e-04-7.275957614183e-12 0.000000000000e+00
    4.200000000000e+01-2.015625000000e+01 4.730197031693e-09-1.437580794565e+00
   -9.611248970032e-07 1.525067142211e-03 1.015700399876e-05 5.153737089157e+03
    5.544000000000e+05-1.303851604462e-08-8.891667112368e-01 1.303851604462e-08
    9.525712792402e-01 1.846250000000e+02 1.813818367170e+00-8.012833766689e-09
    3.857303529318e-11 1.000000000000e+00 2.105000000000e+03 0.000000000000e+00
    2.400000000000e+00 0.000000000000e+00 1.396983861923e-09 4.200000000000e+01
    5.472000000000e+05 4.000000000000e+00
 7 20  5 16 10  0  0.0-2.822931855917e-04-8.640199666843e-12 0.000000000000e+00
    1.040000000000e+02 5.400000000000e+01 5.000565436479e-09 1.614570718311e+00
    2.851709723473e-06 1.379842311144e-02 7.484108209610e-06 5.153669857025e+03
    5.544000000000e+05-3.464519977570e-07 1.846790065419e-01 1.527369022369e-07
    9.536269838316e-01 2.372812500000e+02-2.399178294446e+00-8.366419923543e-09
    1.192906832215e-10 1.000000000000e+00 2.105000000000e+03 0.000000000000e+00
    2.400000000000e+00 0.000000000000e+00-1.117587089539e-08 1.040000000000e+02
    5.472000000000e+05 4.000000000000e+00
27 20  5 16 10  0  0.0-2.950746566057e-04-1.023181539495e-11 0.000000000000e+00
    4.400000000000e+01-1.437500000000e+00 3.761585256553e-09-1.797025128235e+00
   -4.470348358154e-08 8.280854905024e-03 9.512528777122e-06 5.153669153214e+03
    5.544000000000e+05 1.117587089539e-08 2.266986165576e+00-1.508742570877e-07
    9.780894757069e-01 2.054375000000e+02 5.582729179422e-01-7.638889618986e-09
   -8.321775206769e-11 1.000000000000e+00 2.105000000000e+03 0.000000000000e+00
    2.400000000000e+00 0.000000000000e+00 1.862645149231e-09 4.400000000000e+01
    5.472000000000e+05 4.000000000000e+00
24 20  5 16 10  0  0.0-1.309486106038e-05-5.684341886081e-13 0.000000000000e+00
    2.400000000000e+01 5.456250000000e+01 5.262362055645e-09 2.581462316839e+00
    2.700835466385e-06 9.644593694247e-03 7.178634405136e-06 5.153651876450e+03
    5.544000000000e+05-5.029141902924e-08 1.127545938243e-01-1.415610313416e-07
    9.368973555012e-01 2.275937500000e+02 6.679609048528e-01-8.217485148383e-09
    1.864363372504e-10 1.000000000000e+00 2.105000000000e+03 0.000000000000e+00
    2.400000000000e+00 0.000000000000e+00 2.793967723846e-09 2.400000000000e+01
    5.472000000000e+05 4.000000000000e+00
22 20  5 16 10  0  0.0-7.821219041944e-04 1.250555214938e-12 0.000000000000e+00
    1.800000000000e+01-5.065625000000e+01 5.319864450851e-09-2.640679315487e+00
   -2.561137080193e-06 7.200080319308e-03 4.399567842484e-06 5.153501979828e+03
    5.544000000000e+05 8.381903171539e-08-2.006618947756e+00 8.754432201385e-08
    9.303560679903e-01 2.727500000000e+02-1.167188181593e+00-8.467495562321e-09
    7.643175511796e-11 1.000000000000e+00 2.105000000000e+03 0.000000000000e+00
    2.400000000000e+00 0.000000000000e+00-1.816079020500e-08 1.800000000000e+01
    5.472000000000e+05 4.000000000000e+00
15 20  5 16 10  0  0.0-2.308618277311e-04 2.614797267597e-12 0.000000000000e+00
    4.300000000000e+01-2.690625000000e+01 5.180930092248e-09-2.622637234591e+00
   -1.734122633934e-06 1.225650392007e-02 1.047551631927e-05 5.153687627792e+03
    5.544000000000e+05 1.341104507446e-07-9.783810235768e-01-1.676380634308e-07
    9.280521197702e-01 1.573125000000e+02 8.771874280688e-01-8.115338036403e-09
    1.092902666640e-10 1.000000000000e+00 2.105000000000e+03 0.000000000000e+00
    2.400000000000e+00 0.000000000000e+00-1.071020960808e-08 4.300000000000e+01
    5.472000000000e+05 4.000000000000e+00
14 20  5 16 10  0  0.0-1.263432204723e-05 2.614797267597e-12 0.000000000000e+00
    4.100000000000e+01-1.606250000000e+01 4.450899683552e-09-2.007887879973e+00
   -7.525086402893e-07 1.141943421680e-02 1.047551631927e-05 5.153648406982e+03
    5.544000000000e+05 1.750886440277e-07-7.933556667908e-01 6.146728992462e-08
    9.603891002895e-01 1.724375000000e+02-1.917973286303e+00-7.731393472143e-09
    1.957224383395e-10 1.000000000000e+00 2.105000000000e+03 0.000000000000e+00
    2.400000000000e+00 0.000000000000e+00-9.778887033463e-09 4.100000000000e+01
    5.472000000000e+05 4.000000000000e+00
10 20  5 16 10  0  0.0-3.425246104598e-04-1.159605744760e-11 0.000000000000e+00
    8.700000000000e+01-6.200000000000e+01 4.624478342371e-09 2.593894970023e-01
   -3.177672624588e-06 5.594996851869e-03 5.861744284630e-06 5.153664268494e+03
    5.544000000000e+05 6.332993507385e-08-1.923605351210e+00 1.341104507446e-07
    9.652712690000e-01 2.706250000000e+02-2.629987966378e+00-8.232128615486e-09
   -1.821504444400e-11 1.000000000000e+00 2.105000000000e+03 0.000000000000e+00
    2.400000000000e+00 0.000000000000e+00 2.328306436539e-09 8.700000000000e+01
    5.472000000000e+05 4.000000000000e+00
